KUIPER-00247            
1 67152U 25301V   26009.25754704  .00017590  00000+0  52809-3 0  9991
2 67152  51.8646 352.6602 0011167 196.8407 163.2209 15.34466318  4590
KUIPER-00248            
1 67153U 25301W   26009.24620081  .00028665  00000+0  83255-3 0  9995
2 67153  51.8688 352.5951 0008437 181.8099 178.2858 15.35228480  4762
KUIPER-00249            
1 67154U 25301X   26009.63378849  .00020790  00000+0  60029-3 0  9996
2 67154  51.8660 350.6900 0008528 182.2915 177.8033 15.35602346  4654
KUIPER-00250            
1 67155U 25301Y   26009.23531155  .00032621  00000+0  91960-3 0  9998
2 67155  51.8719 352.5282 0006743 169.6297 190.4829 15.36107502  4629
KUIPER-00251            
1 67156U 25301Z   26009.63623630  .00022447  00000+0  65503-3 0  9992
2 67156  51.8670 350.7075 0009077 179.8778 180.2211 15.35215342  4843
KUIPER-00252            
1 67157U 25301AA  26009.64356843  .00020505  00000+0  60578-3 0  9993
2 67157  51.8665 350.7532 0009838 192.0628 168.0123 15.34879962  4650
KUIPER-00261            
1 67158U 25301AB  26009.23450330  .00051937  00000+0  14562-2 0  9999
2 67158  51.8702 352.5218 0006048 171.1116 188.9978 15.36065772  4594
KUIPER-00265            
1 67159U 25301AC  26009.83334490 -.00362340  00000+0 -13690-1 0  9999
2 67159  51.8781 349.7239 0001749 113.5158 287.9437 15.28055834  4715
GALILEO 33              
1 67160U 25302A   25352.14605887 -.00000007  00000+0  00000+0 0  9994
2 67160  54.2406 107.2544 0008423 237.6458 122.2317  1.72906186    28
GALILEO B               
1 67161U 25302B   26007.95780000 -.00000021  00000+0  00000+0 0  9999
2 67161  54.2395 106.6121 0005078 260.5272  99.4223  1.72972217   391
GALILEO 33 (139)        
1 67162U 25302C   25356.18244914  .00000006  00000+0  00000+0 0  9992
2 67162  54.2447 107.1379 0000312 196.8367 159.4994  1.73130437   127
STARLINK-35755          
1 67163U 25303A   25351.60835648 -.00002699  85337-5  00000+0 0  9999
2 67163  43.0100  69.0834 0011500 323.6500   9.4800 16.01284782    10
